1 41970U 17008Y   20266.50110512  .00002425  00000-0  88036-4 0  9990
2 41970  97.3559 334.5157 0005789 314.0182  46.0581 15.29265477200359
1 41970U 17008Y   20266.76283750  .00002672  00000-0  96719-4 0  9994
2 41970  97.3559 334.7746 0005785 312.8327  47.2426 15.29267317200398
1 41970U 17008Y   20267.15543485  .00002986  00000-0  10777-3 0  9999
2 41970  97.3559 335.1628 0005773 311.1179  48.9563 15.29270382200448
1 41970U 17008Y   20268.26778974  .00004125  00000-0  14784-3 0  9994
2 41970  97.3559 336.2628 0005714 306.2552  53.8160 15.29280719200617
1 41970U 17008Y   20268.46408709  .00004206  00000-0  15068-3 0  9998
2 41970  97.3559 336.4569 0005698 305.4056  54.6651 15.29282239200651
1 41970U 17008Y   20269.44557069  .00004794  00000-0  17133-3 0  9998
2 41970  97.3560 337.4274 0005653 300.6573  59.4109 15.29290329200794
1 41970U 17008Y   20269.83816212  .00005189  00000-0  18518-3 0  9996
2 41970  97.3560 337.8156 0005640 298.9943  61.0731 15.29294908200868
1 41970U 17008Y   20270.42704676  .00005785  00000-0  20612-3 0  9993
2 41970  97.3562 338.3979 0005618 296.2968  63.7695 15.29302493200959
1 41970U 17008Y   20270.75420412  .00005621  00000-0  20033-3 0  9998
2 41970  97.3562 338.7215 0005606 294.8966  65.1691 15.29305489200999
1 41970U 17008Y   20271.47394761  .00005747  00000-0  20472-3 0  9991
2 41970  97.3563 339.4334 0005580 291.5259  68.5386 15.29312921201112
1 41970U 17008Y   20271.73567153  .00005769  00000-0  20547-3 0  9994
2 41970  97.3562 339.6922 0005577 290.2161  69.8479 15.29315909201150
1 41970U 17008Y   20272.45540807  .00007741  00000-0  27463-3 0  9997
2 41970  97.3562 340.4040 0005579 286.8961  73.1667 15.29329089201265
1 41970U 17008Y   20272.78256024  .00007089  00000-0  25171-3 0  9997
2 41970  97.3563 340.7275 0005580 285.2956  74.7668 15.29331803201319
1 41970U 17008Y   20273.17514048  .00007915  00000-0  28064-3 0  9996
2 41970  97.3562 341.1159 0005569 283.5386  76.5233 15.29339212201364
1 41970U 17008Y   20273.43686033  .00007560  00000-0  26815-3 0  9997
2 41970  97.3561 341.3747 0005570 282.3094  77.7522 15.29341788201414
1 41970U 17008Y   20273.76400966  .00006651  00000-0  23625-3 0  9998
2 41970  97.3561 341.6983 0005566 280.8069  79.2545 15.29344219201468
1 41970U 17008Y   20274.22201636  .00006609  00000-0  23471-3 0  9995
2 41970  97.3561 342.1513 0005559 278.7458  81.3152 15.29350511201531
1 41970U 17008Y   20274.94173928  .00005760  00000-0  20489-3 0  9999
2 41970  97.3559 342.8632 0005560 275.3307  84.7299 15.29356974201634
1 41970U 17008Y   20275.46517118  .00005582  00000-0  19859-3 0  9991
2 41970  97.3558 343.3810 0005586 273.0267  87.0334 15.29362776201728
1 41970U 17008Y   20275.85774467  .00005032  00000-0  17929-3 0  9992
2 41970  97.3557 343.7692 0005601 271.0634  88.9964 15.29365565201787
1 41970U 17008Y   20276.44660265  .00004626  00000-0  16503-3 0  9993
2 41970  97.3554 344.3516 0005613 268.3051  91.7547 15.29370704201871
1 41970U 17008Y   20276.77374547  .00004232  00000-0  15117-3 0  9997
2 41970  97.3554 344.6752 0005620 266.7612  93.2986 15.29372946201929
1 41970U 17008Y   20277.42802882  .00004219  00000-0  15069-3 0  9999
2 41970  97.3552 345.3223 0005628 263.7626  96.2973 15.29378687202016
1 41970U 17008Y   20277.75516980  .00004048  00000-0  14467-3 0  9997
2 41970  97.3551 345.6459 0005632 262.2960  97.7641 15.29381109202076
1 41970U 17008Y   20278.47487770  .00003750  00000-0  13421-3 0  9999
2 41970  97.3548 346.3576 0005653 259.0169 101.0435 15.29386474202179
1 41970U 17008Y   20278.86744475  .00003588  00000-0  12851-3 0  9995
2 41970  97.3546 346.7459 0005676 257.2146 102.8461 15.29389137202246
1 41970U 17008Y   20279.26001100  .00003373  00000-0  12095-3 0  9993
2 41970  97.3545 347.1341 0005705 255.4432 104.6176 15.29391721202303
1 41970U 17008Y   20279.78343144  .00003546  00000-0  12701-3 0  9993
2 41970  97.3543 347.6516 0005724 253.0724 106.9889 15.29396206202386
1 41970U 17008Y   20280.17599570  .00003718  00000-0  13304-3 0  9995
2 41970  97.3542 348.0398 0005742 251.3486 108.7131 15.29399807202430
1 41970U 17008Y   20280.76483989  .00004635  00000-0  16516-3 0  9993
2 41970  97.3540 348.6220 0005761 248.6911 111.3715 15.29407205202532
1 41970U 17008Y   20281.15740167  .00004678  00000-0  16664-3 0  9992
2 41970  97.3539 349.0102 0005783 246.9750 113.0881 15.29410852202591
1 41970U 17008Y   20281.41910903  .00004357  00000-0  15536-3 0  9999
2 41970  97.3539 349.2689 0005791 245.7711 114.2924 15.29412457202624
1 41970U 17008Y   20281.74624288  .00004019  00000-0  14351-3 0  9992
2 41970  97.3539 349.5925 0005812 244.3659 115.6982 15.29414572202685
1 41970U 17008Y   20282.20422874  .00004070  00000-0  14530-3 0  9997
2 41970  97.3538 350.0453 0005849 242.3449 117.7198 15.29419017202751
1 41970U 17008Y   20282.72764025  .00003579  00000-0  12805-3 0  9997
2 41970  97.3538 350.5628 0005891 240.1570 119.9085 15.29422479202821
1 41970U 17008Y   20283.44732882  .00003476  00000-0  12444-3 0  9998
2 41970  97.3537 351.2745 0005944 237.0026 123.0644 15.29427936202941
1 41970U 17008Y   20283.83988581  .00003050  00000-0  10949-3 0  9996
2 41970  97.3537 351.6626 0005969 235.2641 124.8038 15.29429541202998
1 41970U 17008Y   20284.16701580  .00002978  00000-0  10698-3 0  9994
2 41970  97.3538 351.9861 0005991 233.8477 126.2209 15.29431734203050
1 41970U 17008Y   20284.75584909  .00003117  00000-0  11182-3 0  9998
2 41970  97.3539 352.5683 0006030 231.3050 128.7652 15.29435636203149
1 41970U 17008Y   20285.14840368  .00003148  00000-0  11289-3 0  9998
2 41970  97.3539 352.9566 0006071 229.9250 130.1459 15.29438248203192
1 41970U 17008Y   20285.47553209  .00003112  00000-0  11163-3 0  9991
2 41970  97.3540 353.2800 0006093 228.4459 131.6260 15.29440173203251
1 41970U 17008Y   20285.73723466  .00003113  00000-0  11168-3 0  9990
2 41970  97.3541 353.5388 0006120 227.2865 132.7860 15.29441742203290
1 41970U 17008Y   20286.32606395  .00003291  00000-0  11787-3 0  9991
2 41970  97.3541 354.1210 0006164 224.8087 135.2656 15.29445995203372
1 41970U 17008Y   20286.84946684  .00003392  00000-0  12142-3 0  9994
2 41970  97.3541 354.6386 0006204 222.5826 137.4934 15.29449454203469
1 41970U 17008Y   20287.30744325  .00003449  00000-0  12338-3 0  9994
2 41970  97.3541 355.0915 0006250 220.6994 139.3780 15.29452555203532
1 41970U 17008Y   20287.76541893  .00003343  00000-0  11966-3 0  9998
2 41970  97.3541 355.5443 0006292 218.8507 141.2282 15.29455163203603
1 41970U 17008Y   20288.41966775  .00003490  00000-0  12480-3 0  9996
2 41970  97.3541 356.1914 0006349 216.4473 143.6336 15.29460123203699
1 41970U 17008Y   20288.87764123  .00003452  00000-0  12344-3 0  9996
2 41970  97.3541 356.6443 0006379 214.7190 145.3635 15.29462957203778
1 41970U 17008Y   20289.46646249  .00003565  00000-0  12740-3 0  9995
2 41970  97.3541 357.2267 0006452 212.1794 147.9053 15.29467041203864
1 41970U 17008Y   20289.85900960  .00003421  00000-0  12233-3 0  9999
2 41970  97.3538 357.6148 0006488 210.6829 149.4032 15.29469299203921
1 41970U 17008Y   20290.18613136  .00003482  00000-0  12446-3 0  9996
2 41970  97.3537 357.9383 0006520 209.3885 150.6990 15.29471736203968
1 41970U 17008Y   20290.44782828  .00003606  00000-0  12878-3 0  9997
2 41970  97.3538 358.1972 0006565 208.3346 151.7538 15.29473689204012
1 41970U 17008Y   20291.16749404  .00003554  00000-0  12695-3 0  9999
2 41970  97.3534 358.9088 0006626 205.5934 154.4979 15.29478553204120
1 41970U 17008Y   20291.88715697  .00004097  00000-0  14590-3 0  9994
2 41970  97.3532 359.6206 0006693 202.6552 157.4394 15.29484647204233
1 41970U 17008Y   20292.41054631  .00004248  00000-0  15119-3 0  9994
2 41970  97.3530   0.1382 0006752 200.6998 159.3970 15.29489102204302
1 41970U 17008Y   20292.86851118  .00004182  00000-0  14885-3 0  9994
2 41970  97.3529   0.5910 0006796 199.1391 160.9595 15.29492277204384
1 41970U 17008Y   20293.19562795  .00004219  00000-0  15012-3 0  9995
2 41970  97.3526   0.9144 0006832 197.9974 162.1025 15.29495152204431
1 41970U 17008Y   20293.91528311  .00004516  00000-0  16048-3 0  9991
2 41970  97.3524   1.6259 0006903 195.4707 164.6324 15.29501690204546
1 41970U 17008Y   20294.30782100  .00004777  00000-0  16957-3 0  9991
2 41970  97.3523   2.0139 0006953 194.0526 166.0522 15.29505718204604
1 41970U 17008Y   20294.89662660  .00004813  00000-0  17081-3 0  9993
2 41970  97.3522   2.5961 0006994 191.8880 168.2197 15.29510498204685
1 41970U 17008Y   20295.15831711  .00005095  00000-0  18065-3 0  9994
2 41970  97.3522   2.8548 0007017 190.9340 169.1749 15.29513554204732
1 41970U 17008Y   20296.13965287  .00005727  00000-0  20265-3 0  9996
2 41970  97.3520   3.8250 0007117 187.3997 172.7139 15.29523751204878
1 41970U 17008Y   20296.59760762  .00005628  00000-0  19917-3 0  9999
2 41970  97.3521   4.2778 0007166 185.7748 174.3411 15.29527766204959
1 41970U 17008Y   20297.18640401  .00005539  00000-0  19600-3 0  9992
2 41970  97.3520   4.8598 0007229 183.8348 176.2838 15.29533526205034
1 41970U 17008Y   20297.77519891  .00005675  00000-0  20071-3 0  9990
2 41970  97.3521   5.4419 0007281 181.7598 178.3618 15.29539374205133
1 41970U 17008Y   20298.16772653  .00006464  00000-0  22819-3 0  9990
2 41970  97.3522   5.8300 0007311 180.3899 179.7337 15.29545768205193
1 41970U 17008Y   20298.49483210  .00007000  00000-0  24683-3 0  9992
2 41970  97.3523   6.1534 0007347 179.2233 180.9020 15.29550677205238
1 41970U 17008Y   20298.62567454  .00007171  00000-0  25281-3 0  9994
2 41970  97.3523   6.2828 0007358 178.7151 181.4110 15.29551419205264
1 41970U 17008Y   20299.47614512  .00006454  00000-0  22775-3 0  9994
2 41970  97.3524   7.1238 0007459 175.8027 184.3278 15.29559676205396
1 41970U 17008Y   20299.73782730  .00006380  00000-0  22513-3 0  9999
2 41970  97.3524   7.3826 0007489 174.9949 185.1367 15.29562678205425
1 41970U 17008Y   20299.93408801  .00007120  00000-0  25091-3 0  9992
2 41970  97.3524   7.5766 0007512 174.3151 185.8176 15.29566869205461
